COMMENT,ORIGINATOR,NORAD_CAT_ID,OBJECT_NAME,OBJECT_TYPE,CLASSIFICATION_TYPE,INTLDES,EPOCH,EPOCH_MICROSECONDS,MEAN_MOTION,ECCENTRICITY,INCLINATION,RA_OF_ASC_NODE,ARG_OF_PERICENTER,MEAN_ANOMALY,EPHEMERIS_TYPE,ELEMENT_SET_NO,REV_AT_EPOCH,BSTAR,MEAN_MOTION_DOT,MEAN_MOTION_DDOT,FILE,TLE_LINE0,TLE_LINE1,TLE_LINE2,OBJECT_ID,OBJECT_NUMBER,SEMIMAJOR_AXIS,PERIOD,APOGEE,PERIGEE,DECAYED
GENERATED VIA SPACETRACK.ORG API,18 SPCS,50803,STARLINK-3321,PAYLOAD,U,22001A,2023-06-22 15:17:32,378784,15.08828362,0.0001014,53.2163,298.1254,91.4495,268.6614,0,999,8206,-1.8148e-05,-5.76e-06,0.0,3940033,0 STARLINK-3321,1 50803U 22001A   23173.63718031 -.00000576  00000-0 -18148-4 0  9992,2 50803  53.2163 298.1254 0001014  91.4495 268.6614 15.08828362 82069,2022-001A,50803,6917.916,95.438,540.482,539.079,1
GENERATED VIA SPACETRACK.ORG API,18 SPCS,50803,STARLINK-3321,PAYLOAD,U,22001A,2023-06-23 00:49:52,133088,15.08818148,0.0001017,53.2167,296.343,85.2644,274.8464,0,999,8212,-3.629e-05,-8.65e-06,0.0,3940325,0 STARLINK-3321,1 50803U 22001A   23174.03463117 -.00000865  00000-0 -36290-4 0  9998,2 50803  53.2167 296.3430 0001017  85.2644 274.8464 15.08818148 82129,2022-001A,50803,6917.947,95.439,540.516,539.109,1
GENERATED VIA SPACETRACK.ORG API,18 SPCS,50803,STARLINK-3321,PAYLOAD,U,22001A,2023-06-23 18:19:06,707712,15.0882826,0.0001076,53.2174,293.0725,88.3036,271.8079,0,999,8223,-2.3487e-07,-2.91e-06,0.0,3940891,0 STARLINK-3321,1 50803U 22001A   23174.76327208 -.00000291  00000-0 -23487-6 0  9997,2 50803  53.2174 293.0725 0001076  88.3036 271.8079 15.08828260 82239,2022-001A,50803,6917.916,95.438,540.526,539.037,1
GENERATED VIA SPACETRACK.ORG API,18 SPCS,50803,STARLINK-3321,PAYLOAD,U,22001A,2023-06-24 00:40:38,679744,15.08838603,0.0001079,53.2176,291.8832,90.0054,270.1062,0,999,8227,5.6086e-05,6.05e-06,0.0,3941168,0 STARLINK-3321,1 50803U 22001A   23175.02822546  .00000605  00000-0  56086-4 0  9998,2 50803  53.2176 291.8832 0001079  90.0054 270.1062 15.08838603 82279,2022-001A,50803,6917.885,95.438,540.496,539.003,1
GENERATED VIA SPACETRACK.ORG API,18 SPCS,50803,STARLINK-3321,PAYLOAD,U,22001A,2023-06-24 14:59:06,683424,15.08861688,0.0001115,53.2161,289.2071,93.4917,266.6203,0,999,8236,0.00094154,0.00014737,0.0,3941754,0 STARLINK-3321,1 50803U 22001A   23175.62438291  .00014737  00000-0  94154-3 0  9992,2 50803  53.2161 289.2071 0001115  93.4917 266.6203 15.08861688 82361,2022-001A,50803,6917.814,95.436,540.45,538.908,1
GENERATED VIA SPACETRACK.ORG API,18 SPCS,50803,STARLINK-3321,PAYLOAD,U,22001A,2023-06-25 00:31:25,355136,15.08857419,0.0001233,53.2145,287.4218,96.218,263.8952,0,999,8242,0.00046722,7.159e-05,0.0,3942106,0 STARLINK-3321,1 50803U 22001A   23176.02182124  .00007159  00000-0  46722-3 0  9996,2 50803  53.2145 287.4218 0001233  96.2180 263.8952 15.08857419 82424,2022-001A,50803,6917.827,95.436,540.545,538.839,1
GENERATED VIA SPACETRACK.ORG API,18 SPCS,50803,STARLINK-3321,PAYLOAD,U,22001A,2023-06-26 00:22:12,200736,15.08844973,0.0001164,53.2157,282.9626,82.0319,278.0805,0,999,8257,0.00075174,0.00011698,0.0,3942952,0 STARLINK-3321,1 50803U 22001A   23177.01541899  .00011698  00000-0  75174-3 0  9990,2 50803  53.2157 282.9626 0001164  82.0319 278.0805 15.08844973 82572,2022-001A,50803,6917.865,95.437,540.535,538.925,1
GENERATED VIA SPACETRACK.ORG API,18 SPCS,50803,STARLINK-3321,PAYLOAD,U,22001A,2023-06-26 06:43:44,899392,15.08842358,0.0001353,53.2149,281.7726,85.2195,274.8951,0,999,8261,0.00033089,4.982e-05,0.0,3943212,0 STARLINK-3321,1 50803U 22001A   23177.28038078  .00004982  00000-0  33089-3 0  9996,2 50803  53.2149 281.7726 0001353  85.2195 274.8951 15.08842358 82614,2022-001A,50803,6917.873,95.437,540.674,538.802,1
GENERATED VIA SPACETRACK.ORG API,18 SPCS,50803,STARLINK-3321,PAYLOAD,U,22001A,2023-06-26 14:40:40,695168,15.08836441,9.28e-05,53.2148,280.285,90.1185,269.9913,0,999,8266,0.00013542,1.868e-05,0.0,3943537,0 STARLINK-3321,1 50803U 22001A   23177.61158212  .00001868  00000-0  13542-3 0  9998,2 50803  53.2148 280.2850 0000928  90.1185 269.9913 15.08836441 82660,2022-001A,50803,6917.891,95.438,540.398,539.114,1
GENERATED VIA SPACETRACK.ORG API,18 SPCS,50803,STARLINK-3321,PAYLOAD,U,22001A,2023-06-27 12:56:04,737408,15.08847456,9.92e-05,53.2151,276.1226,80.892,279.2185,0,999,8280,0.00059239,9.154e-05,0.0,3944630,0 STARLINK-3321,1 50803U 22001A   23178.53894372  .00009154  00000-0  59239-3 0  9993,2 50803  53.2151 276.1226 0000992  80.8920 279.2185 15.08847456 82808,2022-001A,50803,6917.858,95.437,540.409,539.036,1
GENERATED VIA SPACETRACK.ORG API,18 SPCS,50803,STARLINK-3321,PAYLOAD,U,22001A,2023-06-28 09:36:05,528736,15.08843522,0.0001027,53.2152,272.257,75.8426,284.268,0,999,8293,0.00021905,3.2e-05,0.0,3944877,0 STARLINK-3321,1 50803U 22001A   23179.40006399  .00003200  00000-0  21905-3 0  9999,2 50803  53.2152 272.2570 0001027  75.8426 284.2680 15.08843522 82933,2022-001A,50803,6917.87,95.437,540.445,539.024,1
GENERATED VIA SPACETRACK.ORG API,18 SPCS,50803,STARLINK-3321,PAYLOAD,U,22001A,2023-06-29 11:02:15,733248,15.0884026,9.99e-05,53.2161,267.4996,77.6639,282.4465,0,999,8309,4.1952e-05,3.8e-06,0.0,3945629,0 STARLINK-3321,1 50803U 22001A   23180.45990432  .00000380  00000-0  41952-4 0  9997,2 50803  53.2161 267.4996 0000999  77.6639 282.4465 15.08840260 83099,2022-001A,50803,6917.88,95.438,540.436,539.053,1
GENERATED VIA SPACETRACK.ORG API,18 SPCS,50803,STARLINK-3321,PAYLOAD,U,22001A,2023-06-30 22:00:45,424224,15.08825978,7.53e-05,53.2171,260.9562,102.1884,257.9192,0,999,8331,-3.2861e-05,-8.1e-06,0.0,3946436,0 STARLINK-3321,1 50803U 22001A   23181.91719241 -.00000810  00000-0 -32861-4 0  9995,2 50803  53.2171 260.9562 0000753 102.1884 257.9192 15.08825978 83319,2022-001A,50803,6917.923,95.438,540.309,539.267,1
GENERATED VIA SPACETRACK.ORG API,18 SPCS,50803,STARLINK-3321,PAYLOAD,U,22001A,2023-07-01 09:08:27,288960,15.08832162,9.16e-05,53.217,258.8743,97.3044,262.8053,0,999,8338,-1.7032e-05,-5.59e-06,0.0,3946732,0 STARLINK-3321,1 50803U 22001A   23182.38087140 -.00000559  00000-0 -17032-4 0  9996,2 50803  53.2170 258.8743 0000916  97.3044 262.8053 15.08832162 83380,2022-001A,50803,6917.904,95.438,540.403,539.136,1
GENERATED VIA SPACETRACK.ORG API,18 SPCS,50803,STARLINK-3321,PAYLOAD,U,22001A,2023-07-02 10:34:37,19136,15.08841917,0.0001068,53.2161,254.1167,111.8486,248.262,0,999,8354,6.7606e-05,7.88e-06,0.0,3947552,0 STARLINK-3321,1 50803U 22001A   23183.44070624  .00000788  00000-0  67606-4 0  9997,2 50803  53.2161 254.1167 0001068 111.8486 248.2620 15.08841917 83544,2022-001A,50803,6917.875,95.437,540.478,539.001,1
GENERATED VIA SPACETRACK.ORG API,18 SPCS,50803,STARLINK-3321,PAYLOAD,U,22001A,2023-07-03 12:00:46,745856,15.08854815,8.6e-05,53.2147,249.358,98.651,261.4579,0,999,8370,0.00040328,6.139e-05,0.0,3948317,0 STARLINK-3321,1 50803U 22001A   23184.50054104  .00006139  00000-0  40328-3 0  9997,2 50803  53.2147 249.3580 0000860  98.6510 261.4579 15.08854815 83701,2022-001A,50803,6917.835,95.437,540.295,539.105,1
GENERATED VIA SPACETRACK.ORG API,18 SPCS,50803,STARLINK-3321,PAYLOAD,U,22001A,2023-07-03 21:33:06,101856,15.08832407,8.07e-05,53.2149,247.5753,99.7663,260.3421,0,999,8376,-0.00012282,-2.241e-05,0.0,3948968,0 STARLINK-3321,1 50803U 22001A   23184.89798729 -.00002241  00000-0 -12282-3 0  9997,2 50803  53.2149 247.5753 0000807  99.7663 260.3421 15.08832407 83760,2022-001A,50803,6917.904,95.438,540.327,539.21,1
GENERATED VIA SPACETRACK.ORG API,18 SPCS,50803,STARLINK-3321,PAYLOAD,U,22001A,2023-07-04 11:51:34,178112,15.08841863,8.99e-05,53.2146,244.899,94.4569,265.6525,0,999,8385,6.9005e-05,8.11e-06,0.0,3949259,0 STARLINK-3321,1 50803U 22001A   23185.49414558  .00000811  00000-0  69005-4 0  9994,2 50803  53.2146 244.8990 0000899  94.4569 265.6525 15.08841863 83857,2022-001A,50803,6917.875,95.437,540.362,539.118,1
GENERATED VIA SPACETRACK.ORG API,18 SPCS,50803,STARLINK-3321,PAYLOAD,U,22001A,2023-07-05 10:06:58,505472,15.08837671,9.32e-05,53.2143,240.7359,92.2856,267.8243,0,999,8399,0.00010036,1.31e-05,0.0,3950054,0 STARLINK-3321,1 50803U 22001A   23186.42151048  .00001310  00000-0  10036-3 0  9994,2 50803  53.2143 240.7359 0000932  92.2856 267.8243 15.08837671 83999,2022-001A,50803,6917.888,95.438,540.397,539.108,1
GENERATED VIA SPACETRACK.ORG API,18 SPCS,50803,STARLINK-3321,PAYLOAD,U,22001A,2023-07-06 13:08:31,606656,15.08850684,9.51e-05,53.2143,235.6803,86.6015,273.5086,0,999,8416,0.00038112,5.785e-05,0.0,3951237,0 STARLINK-3321,1 50803U 22001A   23187.54758804  .00005785  00000-0  38112-3 0  9996,2 50803  53.2143 235.6803 0000951  86.6015 273.5086 15.08850684 84169,2022-001A,50803,6917.848,95.437,540.371,539.055,1
GENERATED VIA SPACETRACK.ORG API,18 SPCS,50803,STARLINK-3321,PAYLOAD,U,22001A,2023-07-07 01:51:36,699840,15.0884584,5.29e-05,53.2154,233.3019,90.6398,269.4655,0,999,8424,0.00023126,3.395e-05,0.0,3951489,0 STARLINK-3321,1 50803U 22001A   23188.07750810  .00003395  00000-0  23126-3 0  9998,2 50803  53.2154 233.3019 0000529  90.6398 269.4655 15.08845840 84248,2022-001A,50803,6917.863,95.437,540.093,539.362,1
GENERATED VIA SPACETRACK.ORG API,18 SPCS,50803,STARLINK-3321,PAYLOAD,U,22001A,2023-07-07 19:20:51,186336,15.08844915,8.96e-05,53.2147,230.0306,86.1942,273.9152,0,999,8435,0.00012795,1.749e-05,0.0,3952383,0 STARLINK-3321,1 50803U 22001A   23188.80614799  .00001749  00000-0  12795-3 0  9995,2 50803  53.2147 230.0306 0000896  86.1942 273.9152 15.08844915 84351,2022-001A,50803,6917.865,95.437,540.35,539.111,1
GENERATED VIA SPACETRACK.ORG API,18 SPCS,50803,STARLINK-3321,PAYLOAD,U,22001A,2023-07-08 19:11:38,304960,15.088397,9.26e-05,53.215,225.5706,89.3559,270.7539,0,999,8450,1.7663e-05,-7e-08,0.0,3952991,0 STARLINK-3321,1 50803U 22001A   23189.79974890 -.00000007  00000-0  17663-4 0  9992,2 50803  53.2150 225.5706 0000926  89.3559 270.7539 15.08839700 84508,2022-001A,50803,6917.881,95.438,540.387,539.106,1
